[{"OBJECT_NAME":"SATCOM 1R","OBJECT_ID":"1983-030A","EPOCH":"2026-03-05T16:29:43.800864","MEAN_MOTION":0.99849051,"ECCENTRICITY":0.00040742,"INCLINATION":13.2964,"RA_OF_ASC_NODE":339.2544,"ARG_OF_PERICENTER":110.9849,"MEAN_ANOMALY":66.2094,"EPHEMERIS_TYPE":0,"CLASSIFICATION_TYPE":"U","NORAD_CAT_ID":13984,"ELEMENT_SET_NO":999,"REV_AT_EPOCH":12944,"BSTAR":0,"MEAN_MOTION_DOT":-2.86e-6,"MEAN_MOTION_DDOT":0},{"OBJECT_NAME":"COSMOS 1191 DEB","OBJECT_ID":"1980-057G","EPOCH":"2026-03-01T02:13:17.101056","MEAN_MOTION":2.01286741,"ECCENTRICITY":0.7174837,"INCLINATION":63.5971,"RA_OF_ASC_NODE":325.4314,"ARG_OF_PERICENTER":25.409,"MEAN_ANOMALY":356.9271,"EPHEMERIS_TYPE":0,"CLASSIFICATION_TYPE":"U","NORAD_CAT_ID":13999,"ELEMENT_SET_NO":999,"REV_AT_EPOCH":32787,"BSTAR":0,"MEAN_MOTION_DOT":-8.79e-6,"MEAN_MOTION_DDOT":0},{"OBJECT_NAME":"GOES 6","OBJECT_ID":"1983-041A","EPOCH":"2026-03-06T06:35:17.556000","MEAN_MOTION":1.00217834,"ECCENTRICITY":0.00023354,"INCLINATION":10.3545,"RA_OF_ASC_NODE":321.8887,"ARG_OF_PERICENTER":307.3462,"MEAN_ANOMALY":243.7345,"EPHEMERIS_TYPE":0,"CLASSIFICATION_TYPE":"U","NORAD_CAT_ID":14050,"ELEMENT_SET_NO":999,"REV_AT_EPOCH":21498,"BSTAR":0,"MEAN_MOTION_DOT":-7.0e-7,"MEAN_MOTION_DDOT":0},{"OBJECT_NAME":"GOES 6 AKM","OBJECT_ID":"1983-041C","EPOCH":"2026-03-06T19:20:18.534912","MEAN_MOTION":0.84336806,"ECCENTRICITY":0.1675209,"INCLINATION":15.9299,"RA_OF_ASC_NODE":321.8744,"ARG_OF_PERICENTER":116.953,"MEAN_ANOMALY":50.8717,"EPHEMERIS_TYPE":0,"CLASSIFICATION_TYPE":"U","NORAD_CAT_ID":14069,"ELEMENT_SET_NO":999,"REV_AT_EPOCH":3896,"BSTAR":0,"MEAN_MOTION_DOT":-2.1e-6,"MEAN_MOTION_DDOT":0},{"OBJECT_NAME":"INTELSAT 506","OBJECT_ID":"1983-047A","EPOCH":"2026-03-07T03:21:28.707840","MEAN_MOTION":0.99160204,"ECCENTRICITY":0.0041124,"INCLINATION":12.5698,"RA_OF_ASC_NODE":334.3118,"ARG_OF_PERICENTER":350.8704,"MEAN_ANOMALY":188.6567,"EPHEMERIS_TYPE":0,"CLASSIFICATION_TYPE":"U","NORAD_CAT_ID":14077,"ELEMENT_SET_NO":999,"REV_AT_EPOCH":12307,"BSTAR":0,"MEAN_MOTION_DOT":-1.96e-6,"MEAN_MOTION_DDOT":0},{"OBJECT_NAME":"SL-12 R/B(2)","OBJECT_ID":"1983-016F","EPOCH":"2026-03-06T20:50:23.036352","MEAN_MOTION":1.01096762,"ECCENTRICITY":0.0016811,"INCLINATION":6.8275,"RA_OF_ASC_NODE":297.568,"ARG_OF_PERICENTER":326.8359,"MEAN_ANOMALY":220.1967,"EPHEMERIS_TYPE":0,"CLASSIFICATION_TYPE":"U","NORAD_CAT_ID":14086,"ELEMENT_SET_NO":999,"REV_AT_EPOCH":12193,"BSTAR":0,"MEAN_MOTION_DOT":1.11e-6,"MEAN_MOTION_DDOT":0},{"OBJECT_NAME":"SL-12 R/B(2)","OBJECT_ID":"1982-044F","EPOCH":"2026-03-06T20:46:45.882048","MEAN_MOTION":1.00261217,"ECCENTRICITY":0.001415,"INCLINATION":8.4199,"RA_OF_ASC_NODE":297.5282,"ARG_OF_PERICENTER":198.1143,"MEAN_ANOMALY":335.5612,"EPHEMERIS_TYPE":0,"CLASSIFICATION_TYPE":"U","NORAD_CAT_ID":14114,"ELEMENT_SET_NO":999,"REV_AT_EPOCH":4631,"BSTAR":0,"MEAN_MOTION_DOT":-5.6e-7,"MEAN_MOTION_DDOT":0},{"OBJECT_NAME":"SL-12 R/B(2)","OBJECT_ID":"1982-009F","EPOCH":"2026-03-07T03:22:38.728128","MEAN_MOTION":1.00986879,"ECCENTRICITY":0.0036579,"INCLINATION":6.69,"RA_OF_ASC_NODE":294.6754,"ARG_OF_PERICENTER":196.9317,"MEAN_ANOMALY":321.9242,"EPHEMERIS_TYPE":0,"CLASSIFICATION_TYPE":"U","NORAD_CAT_ID":14117,"ELEMENT_SET_NO":999,"REV_AT_EPOCH":12240,"BSTAR":0,"MEAN_MOTION_DOT":-9.2e-7,"MEAN_MOTION_DDOT":0},{"OBJECT_NAME":"NAHUEL I2 (ANIK C2)","OBJECT_ID":"1983-059B","EPOCH":"2026-03-06T00:40:37.571232","MEAN_MOTION":0.991266,"ECCENTRICITY":0.0034877,"INCLINATION":13.008,"RA_OF_ASC_NODE":336.9365,"ARG_OF_PERICENTER":116.587,"MEAN_ANOMALY":243.7708,"EPHEMERIS_TYPE":0,"CLASSIFICATION_TYPE":"U","NORAD_CAT_ID":14133,"ELEMENT_SET_NO":999,"REV_AT_EPOCH":4512,"BSTAR":0,"MEAN_MOTION_DOT":-2.65e-6,"MEAN_MOTION_DDOT":0},{"OBJECT_NAME":"PALAPA B1","OBJECT_ID":"1983-059C","EPOCH":"2026-03-06T20:59:29.662368","MEAN_MOTION":1.00156946,"ECCENTRICITY":0.000173,"INCLINATION":11.716,"RA_OF_ASC_NODE":330.1807,"ARG_OF_PERICENTER":47.5179,"MEAN_ANOMALY":141.2443,"EPHEMERIS_TYPE":0,"CLASSIFICATION_TYPE":"U","NORAD_CAT_ID":14134,"ELEMENT_SET_NO":999,"REV_AT_EPOCH":11976,"BSTAR":0,"MEAN_MOTION_DOT":1.29e-6,"MEAN_MOTION_DDOT":0},{"OBJECT_NAME":"GALAXY 1 (G-1)","OBJECT_ID":"1983-065A","EPOCH":"2026-03-06T01:49:29.961408","MEAN_MOTION":1.00143444,"ECCENTRICITY":0.00109896,"INCLINATION":13.677,"RA_OF_ASC_NODE":342.4334,"ARG_OF_PERICENTER":61.2274,"MEAN_ANOMALY":115.0755,"EPHEMERIS_TYPE":0,"CLASSIFICATION_TYPE":"U","NORAD_CAT_ID":14158,"ELEMENT_SET_NO":999,"REV_AT_EPOCH":4559,"BSTAR":0,"MEAN_MOTION_DOT":-2.63e-6,"MEAN_MOTION_DDOT":0},{"OBJECT_NAME":"SL-12 R/B(2)","OBJECT_ID":"1981-102F","EPOCH":"2026-03-05T21:01:45.275808","MEAN_MOTION":1.00232938,"ECCENTRICITY":0.0008219,"INCLINATION":6.8484,"RA_OF_ASC_NODE":295.2499,"ARG_OF_PERICENTER":230.4227,"MEAN_ANOMALY":129.3854,"EPHEMERIS_TYPE":0,"CLASSIFICATION_TYPE":"U","NORAD_CAT_ID":14195,"ELEMENT_SET_NO":999,"REV_AT_EPOCH":12196,"BSTAR":0,"MEAN_MOTION_DOT":3.0e-8,"MEAN_MOTION_DDOT":0},{"OBJECT_NAME":"ARABSAT-1DR (TELSTAR 3A)","OBJECT_ID":"1983-077A","EPOCH":"2026-03-05T19:50:40.522560","MEAN_MOTION":0.99520816,"ECCENTRICITY":0.00225785,"INCLINATION":13.8573,"RA_OF_ASC_NODE":342.7297,"ARG_OF_PERICENTER":171.4517,"MEAN_ANOMALY":188.5892,"EPHEMERIS_TYPE":0,"CLASSIFICATION_TYPE":"U","NORAD_CAT_ID":14234,"ELEMENT_SET_NO":999,"REV_AT_EPOCH":4531,"BSTAR":0,"MEAN_MOTION_DOT":4.1e-7,"MEAN_MOTION_DDOT":0},{"OBJECT_NAME":"INSAT-1B","OBJECT_ID":"1983-089B","EPOCH":"2026-03-06T12:19:33.638592","MEAN_MOTION":1.00179853,"ECCENTRICITY":0.00100483,"INCLINATION":11.3071,"RA_OF_ASC_NODE":327.6941,"ARG_OF_PERICENTER":261.6808,"MEAN_ANOMALY":220.4576,"EPHEMERIS_TYPE":0,"CLASSIFICATION_TYPE":"U","NORAD_CAT_ID":14318,"ELEMENT_SET_NO":999,"REV_AT_EPOCH":12418,"BSTAR":0,"MEAN_MOTION_DOT":-3.08e-6,"MEAN_MOTION_DDOT":0},{"OBJECT_NAME":"SATCOM 2R","OBJECT_ID":"1983-094A","EPOCH":"2026-03-06T17:40:38.892864","MEAN_MOTION":0.99413877,"ECCENTRICITY":0.0014531,"INCLINATION":14.3678,"RA_OF_ASC_NODE":346.6904,"ARG_OF_PERICENTER":61.4849,"MEAN_ANOMALY":159.531,"EPHEMERIS_TYPE":0,"CLASSIFICATION_TYPE":"U","NORAD_CAT_ID":14328,"ELEMENT_SET_NO":999,"REV_AT_EPOCH":15453,"BSTAR":0,"MEAN_MOTION_DOT":-3.36e-6,"MEAN_MOTION_DDOT":0},{"OBJECT_NAME":"GALAXY 2 (G-2)","OBJECT_ID":"1983-098A","EPOCH":"2026-03-06T10:25:16.220928","MEAN_MOTION":1.00168258,"ECCENTRICITY":0.0002944,"INCLINATION":13.6844,"RA_OF_ASC_NODE":342.7449,"ARG_OF_PERICENTER":66.6268,"MEAN_ANOMALY":128.0991,"EPHEMERIS_TYPE":0,"CLASSIFICATION_TYPE":"U","NORAD_CAT_ID":14365,"ELEMENT_SET_NO":999,"REV_AT_EPOCH":13120,"BSTAR":0,"MEAN_MOTION_DOT":9.2e-7,"MEAN_MOTION_DDOT":0},{"OBJECT_NAME":"EKRAN 11","OBJECT_ID":"1983-100A","EPOCH":"2026-03-06T03:07:46.607520","MEAN_MOTION":1.00313855,"ECCENTRICITY":0.0004378,"INCLINATION":7.9873,"RA_OF_ASC_NODE":305.2328,"ARG_OF_PERICENTER":349.9671,"MEAN_ANOMALY":9.9494,"EPHEMERIS_TYPE":0,"CLASSIFICATION_TYPE":"U","NORAD_CAT_ID":14377,"ELEMENT_SET_NO":999,"REV_AT_EPOCH":4634,"BSTAR":0,"MEAN_MOTION_DOT":-2.85e-6,"MEAN_MOTION_DDOT":0}]
