SATCOM 1R               
1 13984U 83030A   26064.68731251 -.00000286  00000+0  00000+0 0  9995
2 13984  13.2964 339.2544 0004074 110.9849  66.2094  0.99849051129441
COSMOS 1191 DEB         
1 13999U 80057G   26060.09255904 -.00000879  00000+0  00000+0 0  9992
2 13999  63.5971 325.4314 7174837  25.4090 356.9271  2.01286741327874
GOES 6                  
1 14050U 83041A   26065.27450875 -.00000070  00000+0  00000+0 0  9999
2 14050  10.3545 321.8887 0002335 307.3462 243.7345  1.00217834214983
GOES 6 AKM              
1 14069U 83041C   26065.80577008 -.00000210  00000+0  00000+0 0  9992
2 14069  15.9299 321.8744 1675209 116.9530  50.8717  0.84336806 38963
INTELSAT 506            
1 14077U 83047A   26066.13991560 -.00000196  00000+0  00000+0 0  9990
2 14077  12.5698 334.3118 0041124 350.8704 188.6567  0.99160204123079
SL-12 R/B(2)            
1 14086U 83016F   26065.86832218  .00000111  00000+0  00000+0 0  9995
2 14086   6.8275 297.5680 0016811 326.8359 220.1967  1.01096762121934
SL-12 R/B(2)            
1 14114U 82044F   26065.86580882 -.00000056  00000+0  00000+0 0  9993
2 14114   8.4199 297.5282 0014150 198.1143 335.5612  1.00261217 46316
SL-12 R/B(2)            
1 14117U 82009F   26066.14072602 -.00000092  00000+0  00000+0 0  9995
2 14117   6.6900 294.6754 0036579 196.9317 321.9242  1.00986879122400
NAHUEL I2 (ANIK C2)     
1 14133U 83059B   26065.02821263 -.00000265  00000+0  00000+0 0  9992
2 14133  13.0080 336.9365 0034877 116.5870 243.7708  0.99126600 45124
PALAPA B1               
1 14134U 83059C   26065.87464887  .00000129  00000+0  00000+0 0  9999
2 14134  11.7160 330.1807 0001730  47.5179 141.2443  1.00156946119762
GALAXY 1 (G-1)          
1 14158U 83065A   26065.07604122 -.00000263  00000+0  00000+0 0  9992
2 14158  13.6770 342.4334 0010989  61.2274 115.0755  1.00143444 45595
SL-12 R/B(2)            
1 14195U 81102F   26064.87621847  .00000003  00000+0  00000+0 0  9994
2 14195   6.8484 295.2499 0008219 230.4227 129.3854  1.00232938121961
ARABSAT-1DR (TELSTAR 3A)
1 14234U 83077A   26064.82685790  .00000041  00000+0  00000+0 0  9995
2 14234  13.8573 342.7297 0022578 171.4517 188.5892  0.99520816 45311
INSAT-1B                
1 14318U 83089B   26065.51358378 -.00000308  00000+0  00000+0 0  9994
2 14318  11.3071 327.6941 0010048 261.6808 220.4576  1.00179853124184
SATCOM 2R               
1 14328U 83094A   26065.73656126 -.00000336  00000+0  00000+0 0  9998
2 14328  14.3678 346.6904 0014531  61.4849 159.5310  0.99413877154537
GALAXY 2 (G-2)          
1 14365U 83098A   26065.43421552  .00000092  00000+0  00000+0 0  9991
2 14365  13.6844 342.7449 0002944  66.6268 128.0991  1.00168258131201
EKRAN 11                
1 14377U 83100A   26065.13040055 -.00000285  00000+0  00000+0 0  9995
2 14377   7.9873 305.2328 0004378 349.9671   9.9494  1.00313855 46340
